[{"OBJECT_NAME":"STARLINK-4012","OBJECT_ID":"2022-052E","EPOCH":"2026-03-09T17:30:20.271456","MEAN_MOTION":15.08835354,"ECCENTRICITY":0.00019429,"INCLINATION":53.2173,"RA_OF_ASC_NODE":278.9389,"ARG_OF_PERICENTER":125.8751,"MEAN_ANOMALY":234.2422,"EPHEMERIS_TYPE":0,"CLASSIFICATION_TYPE":"U","NORAD_CAT_ID":52602,"ELEMENT_SET_NO":999,"REV_AT_EPOCH":21166,"BSTAR":0.00030722261,"MEAN_MOTION_DOT":4.604e-5,"MEAN_MOTION_DDOT":0},{"OBJECT_NAME":"FENGYUN 1C DEB","OBJECT_ID":"1999-025BLM","EPOCH":"2026-03-08T05:01:42.980736","MEAN_MOTION":14.80168873,"ECCENTRICITY":0.01365523,"INCLINATION":98.865,"RA_OF_ASC_NODE":239.8189,"ARG_OF_PERICENTER":197.7839,"MEAN_ANOMALY":161.8566,"EPHEMERIS_TYPE":0,"CLASSIFICATION_TYPE":"U","NORAD_CAT_ID":31231,"ELEMENT_SET_NO":999,"REV_AT_EPOCH":64283,"BSTAR":0.0066268112,"MEAN_MOTION_DOT":0.00059401,"MEAN_MOTION_DDOT":0}]
